{"type": "FeatureCollection", "features": [ {"type": "Feature", "properties": {"norad_id": 41785, "name": "ALSAT 1B", "group": "resource", "lat": 58.48440636854298, "lon": -161.4113215861798, "alt_km": 642.8275431527481, "timestamp": "2025-12-20T05:41:49.675691+00:00", "meta": {"OBJECT_NAME": "ALSAT 1B", "OBJECT_ID": "2016-059C", "EPOCH": "2025-12-19T22:37:36.685344", "MEAN_MOTION": 14.72083325, "ECCENTRICITY": 0.00108092, "INCLINATION": 97.7808, "RA_OF_ASC_NODE": 5.422, "ARG_OF_PERICENTER": 83.1154, "MEAN_ANOMALY": 277.1283, "EPHEMERIS_TYPE": 0, "CLASSIFICATION_TYPE": "U", "NORAD_CAT_ID": 41785, "ELEMENT_SET_NO": 999, "REV_AT_EPOCH": 49420, "BSTAR": 0.00010050382, "MEAN_MOTION_DOT": 5.85e-06, "MEAN_MOTION_DDOT": 0}, "tle": {"line1": "1 41785U 16059C   25353.94278571  .00000585  00000+0  10050-3 0  9993", "line2": "2 41785  97.7808   5.4220 0010809  83.1154 277.1283 14.72083325494203"}}, "geometry": {"type": "Point", "coordinates": [-161.4113215861798, 58.48440636854298]}}, {"type": "Feature", "properties": {"norad_id": 41787, "name": "PATHFINDER 1", "group": "resource", "lat": 69.58010113078798, "lon": -24.980712774915883, "alt_km": 642.3233380085812, "timestamp": "2025-12-20T05:41:49.675701+00:00", "meta": {"OBJECT_NAME": "PATHFINDER 1", "OBJECT_ID": "2016-059E", "EPOCH": "2025-12-19T22:49:46.699680", "MEAN_MOTION": 14.67332832, "ECCENTRICITY": 0.00298535, "INCLINATION": 97.8135, "RA_OF_ASC_NODE": 356.3902, "ARG_OF_PERICENTER": 59.2562, "MEAN_ANOMALY": 301.1577, "EPHEMERIS_TYPE": 0, "CLASSIFICATION_TYPE": "U", "NORAD_CAT_ID": 41787, "ELEMENT_SET_NO": 999, "REV_AT_EPOCH": 49342, "BSTAR": 0.00010419889, "MEAN_MOTION_DOT": 5.46e-06, "MEAN_MOTION_DDOT": 0}, "tle": {"line1": "1 41787U 16059E   25353.95123495  .00000546  00000+0  10420-3 0  9998", "line2": "2 41787  97.8135 356.3902 0029853  59.2562 301.1577 14.67332832493421"}}, "geometry": {"type": "Point", "coordinates": [-24.980712774915883, 69.58010113078798]}}, {"type": "Feature", "properties": {"norad_id": 41790, "name": "SCATSAT 1", "group": "resource", "lat": 16.15432116500087, "lon": 48.62325055736369, "alt_km": 631.6228587275118, "timestamp": "2025-12-20T05:41:49.675711+00:00", "meta": {"OBJECT_NAME": "SCATSAT 1", "OBJECT_ID": "2016-059H", "EPOCH": "2025-12-19T21:30:16.990272", "MEAN_MOTION": 14.78958182, "ECCENTRICITY": 0.00564485, "INCLINATION": 98.1454, "RA_OF_ASC_NODE": 50.6554, "ARG_OF_PERICENTER": 105.4279, "MEAN_ANOMALY": 255.3177, "EPHEMERIS_TYPE": 0, "CLASSIFICATION_TYPE": "U", "NORAD_CAT_ID": 41790, "ELEMENT_SET_NO": 999, "REV_AT_EPOCH": 7508, "BSTAR": 0.00014230332, "MEAN_MOTION_DOT": 1.022e-05, "MEAN_MOTION_DDOT": 0}, "tle": {"line1": "1 41790U 16059H   25353.89602998  .00001022  00000+0  14230-3 0  9998", "line2": "2 41790  98.1454  50.6554 0056448 105.4279 255.3177 14.78958182 75087"}}, "geometry": {"type": "Point", "coordinates": [48.62325055736369, 16.15432116500087]}}, {"type": "Feature", "properties": {"norad_id": 41875, "name": "GOKTURK 1A", "group": "resource", "lat": 25.558677791147822, "lon": -117.42429932083074, "alt_km": 682.8491957436572, "timestamp": "2025-12-20T05:41:49.675721+00:00", "meta": {"OBJECT_NAME": "GOKTURK 1A", "OBJECT_ID": "2016-073A", "EPOCH": "2025-12-19T23:00:45.611136", "MEAN_MOTION": 14.6278783, "ECCENTRICITY": 0.00012633, "INCLINATION": 98.1436, "RA_OF_ASC_NODE": 246.2276, "ARG_OF_PERICENTER": 81.1523, "MEAN_ANOMALY": 278.9822, "EPHEMERIS_TYPE": 0, "CLASSIFICATION_TYPE": "U", "NORAD_CAT_ID": 41875, "ELEMENT_SET_NO": 999, "REV_AT_EPOCH": 48262, "BSTAR": 9.9372812e-05, "MEAN_MOTION_DOT": 4.6e-06, "MEAN_MOTION_DDOT": 0}, "tle": {"line1": "1 41875U 16073A   25353.95886124  .00000460  00000+0  99373-4 0  9997", "line2": "2 41875  98.1436 246.2276 0001263  81.1523 278.9822 14.62787830482625"}}, "geometry": {"type": "Point", "coordinates": [-117.42429932083074, 25.558677791147822]}}, {"type": "Feature", "properties": {"norad_id": 41877, "name": "RESOURCESAT-2A", "group": "resource", "lat": 44.40642762573754, "lon": 55.34737491846701, "alt_km": 817.1201272465578, "timestamp": "2025-12-20T05:41:49.675732+00:00", "meta": {"OBJECT_NAME": "RESOURCESAT-2A", "OBJECT_ID": "2016-074A", "EPOCH": "2025-12-19T22:43:44.446944", "MEAN_MOTION": 14.21602224, "ECCENTRICITY": 0.00013912, "INCLINATION": 98.7756, "RA_OF_ASC_NODE": 63.7612, "ARG_OF_PERICENTER": 220.3327, "MEAN_ANOMALY": 139.7747, "EPHEMERIS_TYPE": 0, "CLASSIFICATION_TYPE": "U", "NORAD_CAT_ID": 41877, "ELEMENT_SET_NO": 999, "REV_AT_EPOCH": 46883, "BSTAR": 1.7955112e-05, "MEAN_MOTION_DOT": -5e-08, "MEAN_MOTION_DDOT": 0}, "tle": {"line1": "1 41877U 16074A   25353.94704221 -.00000005  00000+0  17955-4 0  9998", "line2": "2 41877  98.7756  63.7612 0001391 220.3327 139.7747 14.21602224468830"}}, "geometry": {"type": "Point", "coordinates": [55.34737491846701, 44.40642762573754]}}, {"type": "Feature", "properties": {"norad_id": 41948, "name": "CARTOSAT-2D", "group": "resource", "lat": 15.809696883614961, "lon": -126.25868977561639, "alt_km": 505.3944525698653, "timestamp": "2025-12-20T05:41:49.675742+00:00", "meta": {"OBJECT_NAME": "CARTOSAT-2D", "OBJECT_ID": "2017-008A", "EPOCH": "2025-12-19T22:39:19.910880", "MEAN_MOTION": 15.19324567, "ECCENTRICITY": 0.00052873, "INCLINATION": 97.4389, "RA_OF_ASC_NODE": 51.3321, "ARG_OF_PERICENTER": 139.7476, "MEAN_ANOMALY": 220.4151, "EPHEMERIS_TYPE": 0, "CLASSIFICATION_TYPE": "U", "NORAD_CAT_ID": 41948, "ELEMENT_SET_NO": 999, "REV_AT_EPOCH": 49036, "BSTAR": 0.00012125005, "MEAN_MOTION_DOT": 2.493e-05, "MEAN_MOTION_DDOT": 0}, "tle": {"line1": "1 41948U 17008A   25353.94398045  .00002493  00000+0  12125-3 0  9993", "line2": "2 41948  97.4389  51.3321 0005287 139.7476 220.4151 15.19324567490362"}}, "geometry": {"type": "Point", "coordinates": [-126.25868977561639, 15.809696883614961]}}, {"type": "Feature", "properties": {"norad_id": 42063, "name": "SENTINEL-2B", "group": "resource", "lat": -78.30577043543207, "lon": -160.19661370836226, "alt_km": 797.1738079970555, "timestamp": "2025-12-20T05:41:49.675752+00:00", "meta": {"OBJECT_NAME": "SENTINEL-2B", "OBJECT_ID": "2017-013A", "EPOCH": "2025-12-19T21:45:46.736352", "MEAN_MOTION": 14.30812455, "ECCENTRICITY": 0.00011795, "INCLINATION": 98.5715, "RA_OF_ASC_NODE": 66.2526, "ARG_OF_PERICENTER": 91.5648, "MEAN_ANOMALY": 268.567, "EPHEMERIS_TYPE": 0, "CLASSIFICATION_TYPE": "U", "NORAD_CAT_ID": 42063, "ELEMENT_SET_NO": 999, "REV_AT_EPOCH": 45900, "BSTAR": -3.6353294e-05, "MEAN_MOTION_DOT": -1.39e-06, "MEAN_MOTION_DDOT": 0}, "tle": {"line1": "1 42063U 17013A   25353.90679093 -.00000139  00000+0 -36353-4 0  9996", "line2": "2 42063  98.5715  66.2526 0001179  91.5648 268.5670 14.30812455459005"}}, "geometry": {"type": "Point", "coordinates": [-160.19661370836226, -78.30577043543207]}}, {"type": "Feature", "properties": {"norad_id": 42767, "name": "CARTOSAT-2E", "group": "resource", "lat": 71.53196560943643, "lon": 28.639819717798165, "alt_km": 502.19897101698643, "timestamp": "2025-12-20T05:41:49.675762+00:00", "meta": {"OBJECT_NAME": "CARTOSAT-2E", "OBJECT_ID": "2017-036C", "EPOCH": "2025-12-19T23:03:13.421664", "MEAN_MOTION": 15.19264793, "ECCENTRICITY": 0.00024148, "INCLINATION": 97.4558, "RA_OF_ASC_NODE": 51.4532, "ARG_OF_PERICENTER": 202.0401, "MEAN_ANOMALY": 158.0731, "EPHEMERIS_TYPE": 0, "CLASSIFICATION_TYPE": "U", "NORAD_CAT_ID": 42767, "ELEMENT_SET_NO": 999, "REV_AT_EPOCH": 47093, "BSTAR": 0.00013630305, "MEAN_MOTION_DOT": 2.805e-05, "MEAN_MOTION_DDOT": 0}, "tle": {"line1": "1 42767U 17036C   25353.96057201  .00002805  00000+0  13630-3 0  9991", "line2": "2 42767  97.4558  51.4532 0002414 202.0401 158.0731 15.19264793470931"}}, "geometry": {"type": "Point", "coordinates": [28.639819717798165, 71.53196560943643]}}, {"type": "Feature", "properties": {"norad_id": 42920, "name": "FORMOSAT-5", "group": "resource", "lat": 80.23596506813813, "lon": 10.99500098079036, "alt_km": 722.5947712577708, "timestamp": "2025-12-20T05:41:49.675772+00:00", "meta": {"OBJECT_NAME": "FORMOSAT-5", "OBJECT_ID": "2017-049A", "EPOCH": "2025-12-19T21:01:52.106592", "MEAN_MOTION": 14.50764438, "ECCENTRICITY": 0.00098421, "INCLINATION": 98.2445, "RA_OF_ASC_NODE": 68.0523, "ARG_OF_PERICENTER": 277.3114, "MEAN_ANOMALY": 82.6962, "EPHEMERIS_TYPE": 0, "CLASSIFICATION_TYPE": "U", "NORAD_CAT_ID": 42920, "ELEMENT_SET_NO": 999, "REV_AT_EPOCH": 44067, "BSTAR": 4.6915533e-05, "MEAN_MOTION_DOT": 1.41e-06, "MEAN_MOTION_DDOT": 0}, "tle": {"line1": "1 42920U 17049A   25353.87629753  .00000141  00000+0  46916-4 0  9998", "line2": "2 42920  98.2445  68.0523 0009842 277.3114  82.6962 14.50764438440679"}}, "geometry": {"type": "Point", "coordinates": [10.99500098079036, 80.23596506813813]}}, {"type": "Feature", "properties": {"norad_id": 42969, "name": "SENTINEL-5P", "group": "resource", "lat": -4.88884525836833, "lon": -66.48737880749368, "alt_km": 830.547585497522, "timestamp": "2025-12-20T05:41:49.675783+00:00", "meta": {"OBJECT_NAME": "SENTINEL-5P", "OBJECT_ID": "2017-064A", "EPOCH": "2025-12-19T14:29:43.433088", "MEAN_MOTION": 14.1951907, "ECCENTRICITY": 0.000102, "INCLINATION": 98.7794, "RA_OF_ASC_NODE": 292.1275, "ARG_OF_PERICENTER": 90.2073, "MEAN_ANOMALY": 269.922, "EPHEMERIS_TYPE": 0, "CLASSIFICATION_TYPE": "U", "NORAD_CAT_ID": 42969, "ELEMENT_SET_NO": 999, "REV_AT_EPOCH": 42408, "BSTAR": 3.7143e-05, "MEAN_MOTION_DOT": 3.4e-07, "MEAN_MOTION_DDOT": 0}, "tle": {"line1": "1 42969U 17064A   25353.60397492  .00000034  00000+0  37143-4 0  9994", "line2": "2 42969  98.7794 292.1275 0001020  90.2073 269.9220 14.19519070424083"}}, "geometry": {"type": "Point", "coordinates": [-66.48737880749368, -4.88884525836833]}}]}